     2.10           G: GLONASS NAV DATA                     RINEX VERSION / TYPE
teqc  2015Jun23                         20211206 01:25:49UTCPGM / RUN BY / DATE
Linux 2.4.21-27.ELsmp|Opteron|gcc -static|Linux x86_64|=+   COMMENT
  2021    11    12   -1.396983861923D-09                    CORR TO SYSTEM TIME
                                                            END OF HEADER
 7 21 11 13  4 15  0.0-3.998819738626D-05 0.000000000000D+00 1.440000000000D+04
    1.848325683594D+03-3.006464004517D+00 1.862645149231D-09 0.000000000000D+00
    1.154512207031D+04-7.564382553101D-01 9.313225746155D-10 5.000000000000D+00
    2.270513183594D+04 6.254034042358D-01-1.862645149231D-09 0.000000000000D+00
 9 21 11 13  4 15  0.0 2.329330891371D-05 2.728484105319D-12 1.440000000000D+04
   -1.815221679688D+04 3.457393646240D-01 9.313225746155D-10 0.000000000000D+00
    1.775249853516D+04-2.049360275269D-01 0.000000000000D+00-2.000000000000D+00
    2.835169433594D+03 3.513111114502D+00-9.313225746155D-10 0.000000000000D+00
10 21 11 13  4 15  0.0-7.699895650148D-05-0.000000000000D+00 1.440000000000D+04
   -9.605914550781D+03-1.119894981384D+00 9.313225746155D-10 0.000000000000D+00
    1.966074267578D+04 1.400185585022D+00 9.313225746155D-10-7.000000000000D+00
   -1.305003173828D+04 2.941652297974D+00 0.000000000000D+00 0.000000000000D+00
16 21 11 13  4 15  0.0-2.488587051630D-05-9.094947017729D-13 1.440000000000D+04
   -1.731812890625D+04 1.649355888367D+00 9.313225746155D-10 0.000000000000D+00
    6.687510253906D+03-1.734067916870D+00-0.000000000000D+00-1.000000000000D+00
    1.740502392578D+04 2.317174911499D+00-1.862645149231D-09 0.000000000000D+00
20 21 11 13  4 15  0.0-5.925353616476D-05-0.000000000000D+00 1.440000000000D+04
   -7.161951171875D+03-6.511287689209D-01-0.000000000000D+00 0.000000000000D+00
    1.107474365234D+04-2.926724433899D+00 0.000000000000D+00 2.000000000000D+00
   -2.182942724609D+04-1.267425537109D+00 1.862645149231D-09 0.000000000000D+00
21 21 11 13  4 15  0.0-2.541681751609D-04-2.728484105319D-12 1.440000000000D+04
    3.155096679688D+03-8.745956420898D-02 9.313225746155D-10 0.000000000000D+00
    2.400973535156D+04-1.111715316772D+00 2.793967723846D-09 4.000000000000D+00
   -7.957524414062D+03-3.390086174011D+00 9.313225746155D-10 0.000000000000D+00
22 21 11 13  4 45  0.0-1.448579132557D-04-9.094947017729D-13 1.620000000000D+04
    1.089750390625D+04 3.586940765381D-01 1.862645149231D-09 0.000000000000D+00
    2.300030126953D+04 1.899805068970D-01 2.793967723846D-09-3.000000000000D+00
    2.293635742188D+03-3.586461067200D+00 0.000000000000D+00 0.000000000000D+00
 9 21 11 13  4 45  0.0 2.329796552658D-05 2.728484105319D-12 1.620000000000D+04
   -1.709645019531D+04 7.891635894775D-01 1.862645149231D-09 0.000000000000D+00
    1.673490136719D+04-9.394721984863D-01-0.000000000000D+00-2.000000000000D+00
    8.968339355469D+03 3.257486343384D+00-1.862645149231D-09 0.000000000000D+00
10 21 11 13  4 45  0.0-7.700081914663D-05-0.000000000000D+00 1.620000000000D+04
   -1.101547998047D+04-4.601116180420D-01 9.313225746155D-10 0.000000000000D+00
    2.177001269531D+04 9.024505615234D-01 9.313225746155D-10-7.000000000000D+00
   -7.317279785156D+03 3.386601448059D+00 0.000000000000D+00 0.000000000000D+00
21 21 11 13  4 45  0.0-2.541737630963D-04-2.728484105319D-12 1.620000000000D+04
    2.584516601562D+03-5.733966827393D-01 9.313225746155D-10 0.000000000000D+00
    2.135876025391D+04-1.797500610352D+00 1.862645149231D-09 4.000000000000D+00
   -1.367236865234D+04-2.918438911438D+00 9.313225746155D-10 0.000000000000D+00
 7 21 11 13  4 45  0.0-3.998633474112D-05 0.000000000000D+00 1.668000000000D+04
   -3.708900878906D+03-3.117717742920D+00 1.862645149231D-09 0.000000000000D+00
    1.057225830078D+04-3.142623901367D-01 0.000000000000D+00 5.000000000000D+00
    2.294169921875D+04-3.643941879272D-01-1.862645149231D-09 0.000000000000D+00
22 21 11 13  5 15  0.0-1.448616385460D-04-9.094947017729D-13 1.800000000000D+04
    1.118929736328D+04-7.157707214355D-02 1.862645149231D-09 0.000000000000D+00
    2.259552050781D+04-6.185560226440D-01 1.862645149231D-09-3.000000000000D+00
   -4.167233886719D+03-3.545920372009D+00 0.000000000000D+00 0.000000000000D+00
 9 21 11 13  5 15  0.0 2.330262213945D-05 2.728484105319D-12 1.800000000000D+04
   -1.545925439453D+04 9.873352050781D-01 9.313225746155D-10 0.000000000000D+00
    1.435340673828D+04-1.702034950256D+00-0.000000000000D+00-2.000000000000D+00
    1.441133349609D+04 2.751191139221D+00-1.862645149231D-09 0.000000000000D+00
10 21 11 13  5 15  0.0-7.700175046921D-05-9.094947017729D-13 1.800000000000D+04
   -1.134153955078D+04 6.852817535400D-02 1.862645149231D-09 0.000000000000D+00
    2.278132226562D+04 1.922359466553D-01 0.000000000000D+00-7.000000000000D+00
   -1.016351562500D+03 3.568769454956D+00-0.000000000000D+00 0.000000000000D+00
21 21 11 13  5 15  0.0-2.541793510318D-04-2.728484105319D-12 1.800000000000D+04
    1.022697265625D+03-1.172159194946D+00 9.313225746155D-10 0.000000000000D+00
    1.769122021484D+04-2.230540275574D+00 9.313225746155D-10 4.000000000000D+00
   -1.832801220703D+04-2.220895767212D+00 1.862645149231D-09 0.000000000000D+00
 7 21 11 13  5 15  0.0-3.998540341854D-05 0.000000000000D+00 1.875000000000D+04
   -9.190802246094D+03-2.922776222229D+00 9.313225746155D-10 0.000000000000D+00
    1.041827294922D+04 1.353893280029D-01-0.000000000000D+00 5.000000000000D+00
    2.140962548828D+04-1.327063560486D+00-1.862645149231D-09 0.000000000000D+00
22 21 11 13  5 45  0.0-1.448644325137D-04-9.094947017729D-13 1.980000000000D+04
    1.052752050781D+04-6.878366470337D-01 1.862645149231D-09 0.000000000000D+00
    2.087937744141D+04-1.251667022705D+00 1.862645149231D-09-3.000000000000D+00
   -1.030764404297D+04-3.232686042786D+00 9.313225746155D-10 0.000000000000D+00
 7 21 11 13  5 45  0.0-3.998447209597D-05 0.000000000000D+00 1.980000000000D+04
   -1.406017089844D+04-2.444742202759D+00 9.313225746155D-10 0.000000000000D+00
    1.100075341797D+04 4.874610900879D-01-9.313225746155D-10 5.000000000000D+00
    1.822521435547D+04-2.188408851624D+00-1.862645149231D-09 0.000000000000D+00
 9 21 11 13  5 45  0.0 2.330727875233D-05 2.728484105319D-12 1.980000000000D+04
   -1.369274316406D+04 9.358034133911D-01 9.313225746155D-10 0.000000000000D+00
    1.065760498047D+04-2.381533622742D+00-9.313225746155D-10-2.000000000000D+00
    1.874515332031D+04 2.032981872559D+00-2.793967723846D-09 0.000000000000D+00
10 21 11 13  5 45  0.0-7.700361311436D-05-9.094947017729D-13 1.980000000000D+04
   -1.089436279297D+04 3.891868591309D-01 1.862645149231D-09 0.000000000000D+00
    2.238715966797D+04-6.420402526855D-01-0.000000000000D+00-7.000000000000D+00
    5.363515136719D+03 3.473715782166D+00-9.313225746155D-10 0.000000000000D+00
21 21 11 13  5 45  0.0-2.541849389672D-04-2.728484105319D-12 1.980000000000D+04
   -1.637903808594D+03-1.775164604187D+00 0.000000000000D+00 0.000000000000D+00
    1.350648144531D+04-2.369078636169D+00 0.000000000000D+00 4.000000000000D+00
   -2.156436035156D+04-1.351742744446D+00 1.862645149231D-09 0.000000000000D+00
23 21 11 13  5 45  0.0-1.981947571039D-05-9.094947017729D-13 1.998000000000D+04
    1.774381982422D+04 1.082516670227D+00 2.793967723846D-09 0.000000000000D+00
    1.485592773438D+04 1.020454406738D+00 1.862645149231D-09 3.000000000000D+00
    1.071945214844D+04-3.205565452576D+00-0.000000000000D+00 0.000000000000D+00
22 21 11 13  6 15  0.0-1.448672264814D-04-9.094947017729D-13 2.160000000000D+04
    8.656948242188D+03-1.396982192993D+00 1.862645149231D-09 0.000000000000D+00
    1.824039550781D+04-1.634749412537D+00 9.313225746155D-10-3.000000000000D+00
   -1.565524121094D+04-2.670650482178D+00 9.313225746155D-10 0.000000000000D+00
 7 21 11 13  6 15  0.0-3.998447209597D-05 0.000000000000D+00 2.160000000000D+04
   -1.786076269531D+04-1.749285697937D+00-0.000000000000D+00 0.000000000000D+00
    1.206141357422D+04 6.544504165649D-01-1.862645149231D-09 5.000000000000D+00
    1.363246484375D+04-2.881660461426D+00-1.862645149231D-09 0.000000000000D+00
10 21 11 13  6 15  0.0-7.700547575951D-05-0.000000000000D+00 2.160000000000D+04
   -1.008887646484D+04 4.640293121338D-01 9.313225746155D-10 0.000000000000D+00
    2.046215771484D+04-1.489187240601D+00-9.313225746155D-10-7.000000000000D+00
    1.132671386719D+04 3.108859062195D+00-1.862645149231D-09 0.000000000000D+00
21 21 11 13  6 15  0.0-2.541905269027D-04-2.728484105319D-12 2.160000000000D+04
   -5.302041015625D+03-2.268896102905D+00-0.000000000000D+00 0.000000000000D+00
    9.336822753906D+03-2.218695640564D+00-0.000000000000D+00 4.000000000000D+00
   -2.313166259766D+04-3.784828186035D-01 1.862645149231D-09 0.000000000000D+00
23 21 11 13  6 15  0.0-1.982133835554D-05-9.094947017729D-13 2.160000000000D+04
    1.931681640625D+04 6.233625411987D-01 2.793967723846D-09 0.000000000000D+00
    1.600282080078D+04 2.675724029541D-01 1.862645149231D-09 3.000000000000D+00
    4.609376464844D+03-3.539299011230D+00-0.000000000000D+00 0.000000000000D+00
12 21 11 13  6 15  0.0 2.780063077807D-04 2.728484105319D-12 2.193000000000D+04
    7.002213867188D+03-5.720157623291D-01 9.313225746155D-10 0.000000000000D+00
    1.327579296875D+04 2.769218444824D+00 9.313225746155D-10-1.000000000000D+00
   -2.059037011719D+04 1.590723037720D+00 1.862645149231D-09 0.000000000000D+00
 8 21 11 13  6 15  0.0-6.196741014719D-05 0.000000000000D+00 2.307000000000D+04
   -1.879853515625D+03-2.945532798767D+00 1.862645149231D-09 0.000000000000D+00
    1.175877343750D+04 9.081745147705D-01-0.000000000000D+00 6.000000000000D+00
    2.260117236328D+04-7.216167449951D-01-1.862645149231D-09 0.000000000000D+00
 7 21 11 13  6 45  0.0-3.998354077339D-05 0.000000000000D+00 2.340000000000D+04
   -2.028551269531D+04-9.342460632324D-01-9.313225746155D-10 0.000000000000D+00
    1.321202050781D+04 5.816316604614D-01-1.862645149231D-09 5.000000000000D+00
    7.984914550781D+03-3.352689743042D+00-1.862645149231D-09 0.000000000000D+00
